      2.10          N: GNSS NAV DATA                        RINEX VERSION / TYPE
fic2rin                                 08/29/2023 00:17:43 PGM / RUN BY / DATE
                                                            END OF HEADER
12 23  8 29  0  0  0.0 -.418370589614D-03 -.443378667114D-11  .000000000000D+00
     .310000000000D+02 -.120000000000D+02  .486984570576D-08  .788374203979D+00
    -.698491930962D-06  .865279568825D-02  .697933137417D-05  .515354761887D+04
     .172800000000D+06 -.117346644402D-06 -.140084227829D+01  .409781932831D-07
     .964157973713D+00  .249406250000D+03  .138863710302D+01 -.821177062464D-08
    -.648955603034D-09  .100000000000D+01  .227700000000D+04  .000000000000D+00
     .240000000000D+01  .000000000000D+00 -.125728547573D-07  .310000000000D+02
     .165600000000D+06  .400000000000D+01
8  23  8 29  0  0  0.0 -.139482785016D-03 -.181898940355D-11  .000000000000D+00
     .220000000000D+02  .630625000000D+02  .415374444870D-08 -.200675932645D+01
     .332854688168D-05  .857858732343D-02  .124555081129D-04  .515374744415D+04
     .172800000000D+06 -.670552253723D-07 -.451971641976D+00 -.465661287308D-07
     .957505527834D+00  .137781250000D+03  .269425928409D+00 -.768246286256D-08
    -.395016454021D-09  .100000000000D+01  .227700000000D+04  .000000000000D+00
     .240000000000D+01  .000000000000D+00  .512227416039D-08  .220000000000D+02
     .165600000000D+06  .400000000000D+01
9  23  8 29  0  0  0.0 -.744862481952D-04  .100044417195D-10  .000000000000D+00
     .690000000000D+02 -.100781250000D+03  .436875340469D-08 -.146675741414D+01
    -.511482357979D-05  .266485766042D-02  .113267451525D-04  .515356350327D+04
     .172800000000D+06 -.186264514923D-07  .269551761161D+01  .353902578354D-07
     .957043722633D+00  .165656250000D+03  .194275494009D+01 -.786247036059D-08
     .239295681911D-09  .100000000000D+01  .227700000000D+04  .000000000000D+00
     .240000000000D+01  .000000000000D+00  .931322574615D-09  .690000000000D+02
     .165600000000D+06  .400000000000D+01
7  23  8 29  0  0  0.0  .826711766422D-04 -.106865627458D-10  .000000000000D+00
     .650000000000D+02  .262500000000D+02  .522343186262D-08  .142698116018D+01
     .138953328133D-05  .175345033640D-01  .844337046146D-05  .515372351646D+04
     .172800000000D+06 -.469386577606D-06 -.251623806892D+01  .875443220139D-07
     .950457058329D+00  .217562500000D+03 -.217515322841D+01 -.843642283945D-08
     .578952687132D-09  .100000000000D+01  .227700000000D+04  .000000000000D+00
     .240000000000D+01  .000000000000D+00 -.111758708954D-07  .650000000000D+02
     .165600000000D+06  .400000000000D+01
6  23  8 29  0  0  0.0  .559458974749D-03 -.591171556152D-11  .000000000000D+00
     .610000000000D+02  .114937500000D+03  .372051211712D-08  .232353061478D+01
     .612623989582D-05  .271037023049D-02  .392459332943D-05  .515373304558D+04
     .172800000000D+06 -.204890966415D-07  .633854571730D+00  .353902578354D-07
     .989525482302D+00  .318375000000D+03 -.789982313751D+00 -.787925677410D-08
     .289297764699D-09  .100000000000D+01  .227700000000D+04  .000000000000D+00
     .240000000000D+01  .000000000000D+00  .372529029846D-08  .610000000000D+02
     .165600000000D+06  .400000000000D+01
10 23  8 29  0  0  0.0 -.511649996042D-04 -.159161572810D-11  .000000000000D+00
     .137000000000D+03 -.102406250000D+03  .431946563737D-08  .244978637715D-01
    -.524893403053D-05  .873718771618D-02  .150315463543D-05  .515368875313D+04
     .172800000000D+06  .428408384323D-07  .166965855900D+01  .199303030968D-06
     .979741919212D+00  .362375000000D+03 -.244422691102D+01 -.846035240764D-08
    -.134648465792D-09  .100000000000D+01  .227700000000D+04  .000000000000D+00
     .340000000000D+01  .000000000000D+00  .232830643654D-08  .137000000000D+03
     .165600000000D+06  .400000000000D+01
11 23  8 29  0  0  0.0 -.342429149896D-03 -.178488335223D-10  .000000000000D+00
     .370000000000D+02  .107968750000D+03  .429232164957D-08 -.257632777574D+01
     .573508441448D-05  .108832702972D-02  .301375985146D-05  .515358743858D+04
     .172800000000D+06  .465661287308D-07  .673042268878D+00  .633299350739D-07
     .965785964542D+00  .323312500000D+03 -.280708653520D+01 -.819748431527D-08
     .366800993019D-09  .100000000000D+01  .227700000000D+04  .000000000000D+00
     .240000000000D+01  .000000000000D+00 -.838190317154D-08  .549000000000D+03
     .165600000000D+06  .400000000000D+01
32 23  8 29  0  0  0.0 -.548742245883D-03 -.648014975013D-11  .000000000000D+00
     .330000000000D+02 -.123968750000D+03  .422910473062D-08 -.136482574428D+01
    -.626780092716D-05  .696076080203D-02  .117812305689D-04  .515357793808D+04
     .172800000000D+06  .143423676491D-06  .270907255117D+01  .106170773506D-06
     .960622315764D+00  .149250000000D+03 -.221979391759D+01 -.775568019807D-08
     .278225874939D-09  .100000000000D+01  .227700000000D+04  .000000000000D+00
     .240000000000D+01  .000000000000D+00  .465661287308D-09  .330000000000D+02
     .165600000000D+06  .400000000000D+01
30 23  8 29  0  0  0.0 -.492587685585D-03  .318323145621D-11  .000000000000D+00
     .220000000000D+02  .351250000000D+02  .558523264736D-08  .134300287156D+01
     .195205211639D-05  .658731453586D-02  .789761543274D-05  .515376926804D+04
     .172800000000D+06 -.149011611938D-07 -.251154781605D+01  .173225998878D-06
     .935582947014D+00  .215562500000D+03 -.254664868623D+01 -.855428489173D-08
     .553951645738D-09  .100000000000D+01  .227700000000D+04  .000000000000D+00
     .240000000000D+01  .000000000000D+00  .372529029846D-08  .220000000000D+02
     .165600000000D+06  .400000000000D+01
31 23  8 29  0  0  0.0 -.222560949624D-03 -.568434188608D-12  .000000000000D+00
     .560000000000D+02  .271875000000D+02  .510771275674D-08  .573711237262D+00
     .163912773132D-05  .104052847018D-01  .774301588535D-05  .515360686493D+04
     .172800000000D+06  .186264514923D-07 -.249585574774D+01  .856816768646D-07
     .954502354511D+00  .226093750000D+03  .573835330751D+00 -.827820196320D-08
     .479305679291D-09  .100000000000D+01  .227700000000D+04  .000000000000D+00
     .240000000000D+01  .000000000000D+00 -.130385160446D-07  .560000000000D+02
     .165600000000D+06  .400000000000D+01
29 23  8 29  0  0  0.0 -.608562491834D-03 -.568434188608D-12  .000000000000D+00
     .500000000000D+02  .103406250000D+03  .374194158117D-08 -.207033116597D+01
     .520050525665D-05  .261279207189D-02  .121146440506D-04  .515373094559D+04
     .172800000000D+06 -.502914190292D-07 -.347234235677D+00  .745058059692D-08
     .975509306610D+00  .153281250000D+03  .254140319889D+01 -.758781606300D-08
    -.411088552060D-09  .100000000000D+01  .227700000000D+04  .000000000000D+00
     .240000000000D+01  .000000000000D+00 -.977888703346D-08  .500000000000D+02
     .165600000000D+06  .400000000000D+01
24 23  8 29  0  0  0.0 -.303584150970D-03 -.111413100967D-10  .000000000000D+00
     .630000000000D+02  .281562500000D+02  .537093800684D-08  .243472447543D+01
     .132806599140D-05  .143117561238D-01  .886619091034D-05  .515363327789D+04
     .172800000000D+06 -.447034835815D-07 -.260852216271D+01 -.225380063057D-06
     .934152757338D+00  .193437500000D+03  .913924202006D+00 -.807640784338D-08
     .688957269264D-09  .100000000000D+01  .227700000000D+04  .000000000000D+00
     .240000000000D+01  .000000000000D+00  .232830643654D-08  .630000000000D+02
     .165600000000D+06  .400000000000D+01
27 23  8 29  0  0  0.0 -.301478430629D-04 -.659383658785D-11  .000000000000D+00
     .580000000000D+02  .725937500000D+02  .387766152017D-08 -.194516344307D+01
     .380165874958D-05  .115778207546D-01  .128392130136D-04  .515367588615D+04
     .172800000000D+06  .335276126862D-07 -.427852306795D+00 -.162050127983D-06
     .966450082537D+00  .135593750000D+03  .741286902809D+00 -.746888253751D-08
    -.414660129402D-09  .100000000000D+01  .227700000000D+04  .000000000000D+00
     .240000000000D+01  .000000000000D+00  .139698386192D-08  .580000000000D+02
     .165600000000D+06  .400000000000D+01
16 23  8 29  0  0  0.0 -.461978372186D-03  .522959453519D-11  .000000000000D+00
     .540000000000D+02 -.183125000000D+02  .487984612232D-08 -.103284536712D+01
    -.903382897377D-06  .133518840885D-01  .656954944134D-05  .515363737297D+04
     .172800000000D+06  .253319740295D-06 -.138265955391D+01  .180676579475D-06
     .963804086515D+00  .253656250000D+03  .791908643316D+00 -.813533886952D-08
    -.686457165125D-09  .100000000000D+01  .227700000000D+04  .000000000000D+00
     .240000000000D+01  .000000000000D+00 -.102445483208D-07  .540000000000D+02
     .165600000000D+06  .400000000000D+01
22 23  8 29  0  0  0.0  .132601708174D-03 -.750333128963D-11  .000000000000D+00
     .430000000000D+02 -.158750000000D+02  .489448958942D-08 -.144087156880D+01
    -.802800059319D-06  .153759960085D-01  .695511698723D-05  .515360675049D+04
     .172800000000D+06 -.426545739174D-06 -.137934020742D+01  .160187482834D-06
     .963067429727D+00  .248375000000D+03 -.119351248688D+01 -.827677333226D-08
    -.676456748567D-09  .100000000000D+01  .227700000000D+04  .000000000000D+00
     .240000000000D+01  .000000000000D+00 -.111758708954D-07  .430000000000D+02
     .165600000000D+06  .400000000000D+01
15 23  8 29  0  0  0.0  .722059048712D-04  .363797880709D-11  .000000000000D+00
     .560000000000D+02 -.139562500000D+03  .471305346045D-08 -.300563086864D+01
    -.751763582230D-05  .153263044776D-01  .117700546980D-04  .515378488159D+04
     .172800000000D+06  .176951289177D-06  .257476197941D+01 -.147148966789D-06
     .933431531410D+00  .133375000000D+03  .123425101471D+01 -.786997067301D-08
     .182507602174D-09  .100000000000D+01  .227700000000D+04  .000000000000D+00
     .240000000000D+01  .000000000000D+00 -.107102096081D-07  .560000000000D+02
     .165600000000D+06  .400000000000D+01
